NORAD_CAT_ID,OBJECT_NAME,OBJECT_TYPE,EPOCH,MEAN_MOTION,ECCENTRICITY,INCLINATION,RA_OF_ASC_NODE,ARG_OF_PERICENTER,MEAN_ANOMALY,BSTAR,MEAN_MOTION_DOT,MEAN_MOTION_DDOT,TLE_LINE0,TLE_LINE1,TLE_LINE2,SEMIMAJOR_AXIS,PERIOD,APOGEE,PERIGEE,DECAYED
52262.0,STARLINK-3761,PAYLOAD,2024-05-29 08:39:09,15.08817443,0.0001365,53.2165,144.025,78.6379,281.4766,0.00041576,6.331e-05,0.0,0 STARLINK-3761,1 52262U 22041B   24150.36052419  .00006331  00000-0  41576-3 0  9997,2 52262  53.2165 144.0250 0001365  78.6379 281.4766 15.08817443117556,6917.949,95.439,540.759,538.87,0.0
52262.0,STARLINK-3761,PAYLOAD,2024-05-29 22:57:36,15.08846275,0.0001355,53.2158,141.3476,88.5547,271.5601,0.00013927,1.93e-05,0.0,0 STARLINK-3761,1 52262U 22041B   24150.95667507  .00001930  00000-0  13927-3 0  9991,2 52262  53.2158 141.3476 0001355  88.5547 271.5601 15.08846275116422,6917.861,95.437,540.664,538.789,0.0
52262.0,STARLINK-3761,PAYLOAD,2024-05-30 05:19:08,15.08850233,0.0001387,53.216,140.1589,86.2904,273.8246,0.000168,2.388e-05,0.0,0 STARLINK-3761,1 52262U 22041B   24151.22163134  .00002388  00000-0  16800-3 0  9990,2 52262  53.2160 140.1589 0001387  86.2904 273.8246 15.08850233117682,6917.849,95.437,540.674,538.755,0.0
52262.0,STARLINK-3761,PAYLOAD,2024-05-30 06:54:32,15.08851241,0.0001425,53.2164,139.8617,87.0787,273.0368,0.00017742,2.538e-05,0.0,0 STARLINK-3761,1 52262U 22041B   24151.28787054  .00002538  00000-0  17742-3 0  9992,2 52262  53.2164 139.8617 0001425  87.0787 273.0368 15.08851241116477,6917.846,95.437,540.697,538.725,0.0
52262.0,STARLINK-3761,PAYLOAD,2024-05-30 22:48:22,15.08857762,0.0001486,53.2168,136.8887,85.1713,274.9449,0.00016201,2.293e-05,0.0,0 STARLINK-3761,1 52262U 22041B   24151.95026419  .00002293  00000-0  16201-3 0  9994,2 52262  53.2168 136.8887 0001486  85.1713 274.9449 15.08857762116577,6917.826,95.436,540.719,538.663,0.0
52262.0,STARLINK-3761,PAYLOAD,2024-05-31 05:09:55,15.08856746,0.0001482,53.2167,135.6989,86.7337,273.3825,0.00014536,2.027e-05,0.0,0 STARLINK-3761,1 52262U 22041B   24152.21522323  .00002027  00000-0  14536-3 0  9993,2 52262  53.2167 135.6989 0001482  86.7337 273.3825 15.08856746116618,6917.829,95.436,540.719,538.669,0.0
52262.0,STARLINK-3761,PAYLOAD,2024-05-31 22:39:10,15.08845083,0.0001393,53.2168,132.4269,92.9732,267.1419,-3.5205e-05,-8.48e-06,0.0,0 STARLINK-3761,1 52262U 22041B   24152.94386773 -.00000848  00000-0 -35205-4 0  9998,2 52262  53.2168 132.4269 0001393  92.9732 267.1419 15.08845083116728,6917.865,95.437,540.694,538.766,0.0
52262.0,STARLINK-3761,PAYLOAD,2024-06-01 05:00:42,15.08845836,0.0001419,53.2168,131.2371,95.6313,264.4841,-3.358e-05,-8.22e-06,0.0,0 STARLINK-3761,1 52262U 22041B   24153.20882561 -.00000822  00000-0 -33580-4 0  9990,2 52262  53.2168 131.2371 0001419  95.6313 264.4841 15.08845836117987,6917.863,95.437,540.709,538.746,0.0
52262.0,STARLINK-3761,PAYLOAD,2024-06-01 08:11:28,15.08845658,0.0001417,53.2171,130.6426,95.5312,264.5841,-3.8128e-05,-8.95e-06,0.0,0 STARLINK-3761,1 52262U 22041B   24153.34130520 -.00000895  00000-0 -38128-4 0  9999,2 52262  53.2171 130.6426 0001417  95.5312 264.5841 15.08845658116781,6917.863,95.437,540.708,538.748,0.0
52262.0,STARLINK-3761,PAYLOAD,2024-06-02 08:02:15,15.08846328,0.0001478,53.2177,126.1826,97.7133,262.4027,-1.1766e-05,-4.75e-06,0.0,0 STARLINK-3761,1 52262U 22041B   24154.33489996 -.00000475  00000-0 -11766-4 0  9996,2 52262  53.2177 126.1826 0001478  97.7133 262.4027 15.08846328118154,6917.861,95.437,540.749,538.704,0.0
52262.0,STARLINK-3761,PAYLOAD,2024-06-03 04:42:16,15.08836412,0.0001357,53.2178,122.3169,95.5015,264.6132,5.6538e-05,6.12e-06,0.0,0 STARLINK-3761,1 52262U 22041B   24155.19602485  .00000612  00000-0  56538-4 0  9998,2 52262  53.2178 122.3169 0001357  95.5015 264.6132 15.08836412118282,6917.891,95.438,540.695,538.818,0.0
52262.0,STARLINK-3761,PAYLOAD,2024-06-03 14:14:34,15.08842698,0.0001337,53.218,120.5331,94.4586,265.6559,9.1855e-05,1.174e-05,0.0,0 STARLINK-3761,1 52262U 22041B   24155.59346041  .00001174  00000-0  91855-4 0  9990,2 52262  53.2180 120.5331 0001337  94.4586 265.6559 15.08842698117124,6917.872,95.437,540.662,538.812,0.0
52262.0,STARLINK-3761,PAYLOAD,2024-06-03 22:11:31,15.08837793,0.0001377,53.2186,119.0482,97.885,262.2299,3.767e-05,3.12e-06,0.0,0 STARLINK-3761,1 52262U 22041B   24155.92466560  .00000312  00000-0  37670-4 0  9994,2 52262  53.2186 119.0482 0001377  97.8850 262.2299 15.08837793117174,6917.887,95.438,540.705,538.8,0.0
52262.0,STARLINK-3761,PAYLOAD,2024-06-04 07:43:49,15.08844547,0.000146,53.2184,117.2639,95.9319,264.184,8.7323e-05,1.102e-05,0.0,0 STARLINK-3761,1 52262U 22041B   24156.32210133  .00001102  00000-0  87323-4 0  9990,2 52262  53.2184 117.2639 0001460  95.9319 264.1840 15.08844547118458,6917.866,95.437,540.741,538.721,0.0
52262.0,STARLINK-3761,PAYLOAD,2024-06-04 14:05:21,15.08851052,0.0001397,53.2184,116.0737,92.777,267.3382,0.00014143,1.964e-05,0.0,0 STARLINK-3761,1 52262U 22041B   24156.58705410  .00001964  00000-0  14143-3 0  9990,2 52262  53.2184 116.0737 0001397  92.7770 267.3382 15.08851052118498,6917.847,95.437,540.678,538.745,0.0
52262.0,STARLINK-3761,PAYLOAD,2024-06-05 04:23:50,15.08835803,0.0001401,53.2186,113.3991,96.2586,263.8565,2.5852e-05,1.23e-06,0.0,0 STARLINK-3761,1 52262U 22041B   24157.18322770  .00000123  00000-0  25852-4 0  9997,2 52262  53.2186 113.3991 0001401  96.2586 263.8565 15.08835803118582,6917.893,95.438,540.727,538.789,0.0
52262.0,STARLINK-3761,PAYLOAD,2024-06-05 13:56:09,15.08842406,0.0001439,53.2187,111.6144,94.4019,265.7137,6.2313e-05,7.04e-06,0.0,0 STARLINK-3761,1 52262U 22041B   24157.58066326  .00000704  00000-0  62313-4 0  9991,2 52262  53.2187 111.6144 0001439  94.4019 265.7137 15.08842406117421,6917.873,95.437,540.734,538.743,0.0
52262.0,STARLINK-3761,PAYLOAD,2024-06-06 04:14:38,15.08834484,0.0001395,53.2184,108.9381,88.5548,271.5604,2.6072e-05,1.27e-06,0.0,0 STARLINK-3761,1 52262U 22041B   24158.17683141  .00000127  00000-0  26072-4 0  9998,2 52262  53.2184 108.9381 0001395  88.5548 271.5604 15.08834484118738,6917.897,95.438,540.727,538.797,0.0
52262.0,STARLINK-3761,PAYLOAD,2024-06-06 13:46:55,15.08851919,0.0001514,53.2186,107.1516,81.1564,278.9599,8.6009e-05,1.082e-05,0.0,0 STARLINK-3761,1 52262U 22041B   24158.57425870  .00001082  00000-0  86009-4 0  9992,2 52262  53.2186 107.1516 0001514  81.1564 278.9599 15.08851919117578,6917.844,95.437,540.756,538.662,0.0
52262.0,STARLINK-3761,PAYLOAD,2024-06-07 13:37:44,15.08836082,0.0001415,53.2179,102.692,82.8394,277.2759,1.0887e-05,-1.15e-06,0.0,0 STARLINK-3761,1 52262U 22041B   24159.56787114 -.00000115  00000-0  10887-4 0  9992,2 52262  53.2179 102.6920 0001415  82.8394 277.2759 15.08836082117729,6917.892,95.438,540.736,538.778,0.0
52262.0,STARLINK-3761,PAYLOAD,2024-06-08 02:20:48,15.08842995,0.0001362,53.2172,100.3137,87.38,272.7348,7.9345e-05,9.75e-06,0.0,0 STARLINK-3761,1 52262U 22041B   24160.09778603  .00000975  00000-0  79345-4 0  9992,2 52262  53.2172 100.3137 0001362  87.3800 272.7348 15.08842995119029,6917.871,95.437,540.678,538.794,0.0
52262.0,STARLINK-3761,PAYLOAD,2024-06-08 13:28:29,15.08855762,0.0001686,53.2196,98.2306,102.8746,257.2435,0.00014008,1.943e-05,0.0,0 STARLINK-3761,1 52262U 22041B   24160.56145449  .00001943  00000-0  14008-3 0  9990,2 52262  53.2196  98.2306 0001686 102.8746 257.2435 15.08855762117871,6917.832,95.437,540.864,538.531,0.0
52262.0,STARLINK-3761,PAYLOAD,2024-06-09 02:11:36,15.08824599,0.0001216,53.2173,95.8528,94.4432,265.6699,-4.1096e-05,-9.42e-06,0.0,0 STARLINK-3761,1 52262U 22041B   24161.09139997 -.00000942  00000-0 -41096-4 0  9998,2 52262  53.2173  95.8528 0001216  94.4432 265.6699 15.08824599119176,6917.927,95.439,540.634,538.951,0.0
52262.0,STARLINK-3761,PAYLOAD,2024-06-09 19:40:50,15.08837389,0.0001402,53.2197,92.5788,108.851,251.2634,6.5822e-05,7.6e-06,0.0,0 STARLINK-3761,1 52262U 22041B   24161.82003179  .00000760  00000-0  65822-4 0  9990,2 52262  53.2197  92.5788 0001402 108.8510 251.2634 15.08837389119281,6917.888,95.438,540.723,538.783,0.0
52262.0,STARLINK-3761,PAYLOAD,2024-06-09 22:51:36,15.0883867,0.0001366,53.2194,91.9849,108.061,252.0531,7.9166e-05,9.72e-06,0.0,0 STARLINK-3761,1 52262U 22041B   24161.95251111  .00000972  00000-0  79166-4 0  9996,2 52262  53.2194  91.9849 0001366 108.0610 252.0531 15.08838670118087,6917.884,95.438,540.694,538.804,0.0
52262.0,STARLINK-3761,PAYLOAD,2024-06-10 05:13:09,15.08845442,0.0001272,53.2168,90.7979,96.8764,263.2372,5.4563e-05,5.81e-06,0.0,0 STARLINK-3761,1 52262U 22041B   24162.21746951  .00000581  00000-0  54563-4 0  9997,2 52262  53.2168  90.7979 0001272  96.8764 263.2372 15.08845442118126,6917.864,95.437,540.609,538.849,0.0
52262.0,STARLINK-3761,PAYLOAD,2024-06-10 22:42:24,15.08832077,0.0001317,53.216,87.5261,100.8124,259.3017,0.00029615,4.427e-05,0.0,0 STARLINK-3761,1 52262U 22041B   24162.94611902  .00004427  00000-0  29615-3 0  9996,2 52262  53.2160  87.5261 0001317 100.8124 259.3017 15.08832077118236,6917.905,95.438,540.681,538.859,0.0
52262.0,STARLINK-3761,PAYLOAD,2024-06-11 05:03:57,15.08830348,0.0001254,53.2178,86.335,106.2708,253.8422,0.00022793,3.341e-05,0.0,0 STARLINK-3761,1 52262U 22041B   24163.21107743  .00003341  00000-0  22793-3 0  9994,2 52262  53.2178  86.3350 0001254 106.2708 253.8422 15.08830348119496,6917.91,95.438,540.642,538.907,0.0
52262.0,STARLINK-3761,PAYLOAD,2024-06-12 01:43:58,15.08832894,0.0001188,53.2172,82.4688,87.7283,272.3845,3.2781e-05,2.34e-06,0.0,0 STARLINK-3761,1 52262U 22041B   24164.07220406  .00000234  00000-0  32781-4 0  9998,2 52262  53.2172  82.4688 0001188  87.7283 272.3845 15.08832894118401,6917.902,95.438,540.589,538.945,0.0
52262.0,STARLINK-3761,PAYLOAD,2024-06-12 11:16:16,15.08839895,0.000116,53.2176,80.6855,94.5352,265.5772,8.3691e-05,1.044e-05,0.0,0 STARLINK-3761,1 52262U 22041B   24164.46963861  .00001044  00000-0  83691-4 0  9996,2 52262  53.2176  80.6855 0001160  94.5352 265.5772 15.08839895119686,6917.881,95.438,540.548,538.943,0.0
